ORBCOMM FM37            
1 33064U 08031E   25210.36217227  .00001617  00000+0  23992-3 0  9990
2 33064  48.4395 143.1158 0005185 201.1504 310.2478 14.79878610920294
ORBCOMM FM40            
1 33065U 08031F   25210.48296940  .00002009  00000+0  27626-3 0  9997
2 33065  48.4407 125.8653 0006405 213.9670 317.2205 14.82168616920430
VESSELSAT 1             
1 37840U 11058C   25210.30785355  .00000346  00000+0  44090-4 0  9996
2 37840  19.9603 199.0154 0013474 290.2052  69.6903 14.11359767712265
ORBCOMM FM109           
1 40086U 14040A   25210.32367823  .00000653  00000+0  17660-3 0  9997
2 40086  47.0021 177.2828 0001534 211.8818 148.1975 14.58221691587218
ORBCOMM FM107           
1 40087U 14040B   25210.28170300  .00000609  00000+0  16689-3 0  9996
2 40087  47.0037 178.4295 0000166 123.5095 236.5807 14.58295558587289
ORBCOMM FM106           
1 40088U 14040C   25210.11453334  .00000929  00000+0  18632-3 0  9995
2 40088  47.0619 357.9623 0017583 260.8927  98.9975 14.69516307589643
ORBCOMM FM111           
1 40089U 14040D   25210.43097237  .00002932  00000+0  34977-3 0  9993
2 40089  46.9994 200.8974 0029974  32.7934 327.4816 14.86470143596518
ORBCOMM FM104           
1 40090U 14040E   25210.52217324  .00000412  00000+0  12908-3 0  9997
2 40090  47.0032 211.4128 0015858  34.8891 325.3031 14.56689364586794
